NORAD_CAT_ID,OBJECT_NAME,OBJECT_TYPE,EPOCH,MEAN_MOTION,ECCENTRICITY,INCLINATION,RA_OF_ASC_NODE,ARG_OF_PERICENTER,MEAN_ANOMALY,BSTAR,MEAN_MOTION_DOT,MEAN_MOTION_DDOT,TLE_LINE0,TLE_LINE1,TLE_LINE2,SEMIMAJOR_AXIS,PERIOD,APOGEE,PERIGEE,DECAYED
52266.0,STARLINK-3739,PAYLOAD,2022-07-06 14:00:01,15.08850032,0.0001551999999999,53.2146,14.0677,55.0734,155.9269,-0.00029777,-5.025e-05,0.0,0 STARLINK-3739,1 52266U 22041F   22187.58334491 -.00005025  00000-0 -29777-3 0  9996,2 52266  53.2146  14.0677 0001552  55.0734 155.9269 15.08850032  1309,6917.85,95.437,540.788,538.641,0.0
52266.0,STARLINK-3739,PAYLOAD,2022-07-06 22:00:00,15.08838916,0.0001747,53.2146,12.5726,48.7172,173.8912,-0.00043762,-7.246e-05,0.0,0 STARLINK-3739,1 52266U 22041F   22187.91667824 -.00007246  00000-0 -43762-3 0  9999,2 52266  53.2146  12.5726 0001747  48.7172 173.8912 15.08838916  1309,6917.884,95.438,540.957,538.54,0.0
52266.0,STARLINK-3739,PAYLOAD,2022-07-07 14:00:01,15.08841852,0.0001624,53.2143,9.5786,58.3847,187.3954,-0.00059716,-9.78e-05,0.0,0 STARLINK-3739,1 52266U 22041F   22188.58334491 -.00009780  00000-0 -59716-3 0  9995,2 52266  53.2143   9.5786 0001624  58.3847 187.3954 15.08841852  1307,6917.875,95.437,540.863,538.616,0.0
52266.0,STARLINK-3739,PAYLOAD,2022-07-07 22:00:00,15.08813743,0.0001773,53.214,8.0836,51.2438,206.1348,0.0027274,0.00043355,0.0,0 STARLINK-3739,1 52266U 22041F   22188.91667824  .00043355  00000-0  27274-2 0  9998,2 52266  53.2140   8.0836 0001773  51.2438 206.1348 15.08813743  1302,6917.9609999999975,95.439,541.052,538.599,0.0
52266.0,STARLINK-3739,PAYLOAD,2022-07-08 12:45:41,15.08844007,0.0001676999999999,53.2146,5.3201,54.0816,306.0331,9.8607e-05,1.282e-05,0.0,0 STARLINK-3739,1 52266U 22041F   22189.53173539  .00001282  00000-0  98607-4 0  9995,2 52266  53.2146   5.3201 0001677  54.0816 306.0331 15.08844007 12040,6917.868,95.437,540.893,538.573,0.0
52266.0,STARLINK-3739,PAYLOAD,2022-07-08 22:00:01,15.08865104,0.0001726,53.2133,3.5942,50.7031,241.5738,0.00031954,4.805e-05,0.0,0 STARLINK-3739,1 52266U 22041F   22189.91668981  .00004805  00000-0  31954-3 0  9992,2 52266  53.2133   3.5942 0001726  50.7031 241.5738 15.08865104 13322,6917.804,95.436,540.863,538.475,0.0
52266.0,STARLINK-3739,PAYLOAD,2022-07-09 06:00:00,15.088505599999998,0.0001558,53.2132,2.0959,55.4753,248.3618,-0.0031541,-0.00050151,0.0,0 STARLINK-3739,1 52266U 22041F   22190.25001157 -.00050151  00000-0 -31541-2 0  9995,2 52266  53.2132   2.0959 0001558  55.4753 248.3618 15.08850560 13376,6917.848000000001,95.437,540.7909999999998,538.635,0.0
52266.0,STARLINK-3739,PAYLOAD,2022-07-09 14:00:01,15.08828504,0.0001543,53.2132,0.5998,56.6461,258.7668,-0.004849,-0.00076616,0.0,0 STARLINK-3739,1 52266U 22041F   22190.58334491 -.00076616  00000-0 -48490-2 0  9996,2 52266  53.2132   0.5998 0001543  56.6461 258.7668 15.08828504  1308,6917.916,95.438,540.8480000000002,538.7130000000002,0.0
52266.0,STARLINK-3739,PAYLOAD,2022-07-09 20:00:01,15.08756905,0.0001658,53.213,359.4787,49.2919,184.7913,0.0015109,0.00023785,0.0,0 STARLINK-3739,1 52266U 22041F   22190.83334491  .00023785  00000-0  15109-2 0  9992,2 52266  53.2130 359.4787 0001658  49.2919 184.7913 15.08756905  1307,6918.134,95.443,541.146,538.852,0.0
52266.0,STARLINK-3739,PAYLOAD,2022-07-10 06:00:00,15.08775728,0.0001538,53.2129,357.6064,53.9207,284.5536,0.0030556,0.00048592,0.0,0 STARLINK-3739,1 52266U 22041F   22191.25001157  .00048592  00000-0  30556-2 0  9995,2 52266  53.2129 357.6064 0001538  53.9207 284.5536 15.08775728 13523,6918.0769999999975,95.442,541.006,538.878,0.0
52266.0,STARLINK-3739,PAYLOAD,2022-07-10 14:00:01,15.08823854,0.0001591,53.2131,356.1104,54.9749,295.0364,0.0016084,0.00025391,0.0,0 STARLINK-3739,1 52266U 22041F   22191.58334491  .00025391  00000-0  16084-2 0  9993,2 52266  53.2131 356.1104 0001591  54.9749 295.0364 15.08823854  1309,6917.93,95.439,540.895,538.694,0.0
52266.0,STARLINK-3739,PAYLOAD,2022-07-10 22:00:00,15.08827156,0.0001678,53.2129,354.6151,46.5949,315.0043,0.0030024,0.00047803,0.0,0 STARLINK-3739,1 52266U 22041F   22191.91667824  .00047803  00000-0  30024-2 0  9991,2 52266  53.2129 354.6151 0001678  46.5949 315.0043 15.08827156  1302,6917.92,95.438,540.945,538.624,0.0
52266.0,STARLINK-3739,PAYLOAD,2022-07-11 14:00:01,15.08890468,0.0001684,53.2133,351.6206,53.1885,331.6295,-0.0044602,-0.00070674,0.0,0 STARLINK-3739,1 52266U 22041F   22192.58334491 -.00070674  00000-0 -44602-2 0  9997,2 52266  53.2133 351.6206 0001684  53.1885 331.6295 15.08890468 13734,6917.726,95.434,540.756,538.4259999999998,0.0
52266.0,STARLINK-3739,PAYLOAD,2022-07-11 22:00:00,15.08836394,0.0001803,53.2132,350.125,47.4208,349.0224,0.0010407,0.00016312,0.0,0 STARLINK-3739,1 52266U 22041F   22192.91667824  .00016312  00000-0  10407-2 0  9996,2 52266  53.2132 350.1250 0001803  47.4208 349.0224 15.08836394  1307,6917.891,95.438,541.004,538.509,0.0
52266.0,STARLINK-3739,PAYLOAD,2022-07-12 06:00:00,15.08815411,0.0001584,53.2136,348.6266,52.0237,356.034,0.001948,0.0003083,0.0,0 STARLINK-3739,1 52266U 22041F   22193.25001157  .00030830  00000-0  19480-2 0  9996,2 52266  53.2136 348.6266 0001584  52.0237 356.0340 15.08815411 13835,6917.956,95.439,540.9159999999998,538.725,0.0
52266.0,STARLINK-3739,PAYLOAD,2022-07-12 14:00:01,15.088590599999998,0.0001695,53.2138,347.1308,51.1224,8.5158,-0.0010726,-0.00017327,0.0,0 STARLINK-3739,1 52266U 22041F   22193.58334491 -.00017327  00000-0 -10726-2 0  9994,2 52266  53.2138 347.1308 0001695  51.1224   8.5158 15.08859060  1300,6917.821999999999,95.436,540.86,538.515,0.0
52266.0,STARLINK-3739,PAYLOAD,2022-07-12 22:00:00,15.08855052,0.0001827,53.2136,345.6351,45.4978,25.7532,0.00037988,5.765e-05,0.0,0 STARLINK-3739,1 52266U 22041F   22193.91667824  .00005765  00000-0  37988-3 0  9991,2 52266  53.2136 345.6351 0001827  45.4978  25.7532 15.08855052  1302,6917.834,95.437,540.9630000000002,538.435,0.0
52266.0,STARLINK-3739,PAYLOAD,2022-07-13 06:00:00,15.08833995,0.0001648,53.2141,344.1367,52.3719,30.5095,0.0011792,0.00018526,0.0,0 STARLINK-3739,1 52266U 22041F   22194.25001157  .00018526  00000-0  11792-2 0  9993,2 52266  53.2141 344.1367 0001648  52.3719  30.5095 15.08833995 13987,6917.899,95.438,540.904,538.624,0.0
52266.0,STARLINK-3739,PAYLOAD,2022-07-13 14:00:01,15.08840461,0.0001696999999999,53.2143,342.6412,51.0008,43.4695,-0.0014030999999999,-0.00022549,0.0,0 STARLINK-3739,1 52266U 22041F   22194.58334491 -.00022549  00000-0 -14031-2 0  9990,2 52266  53.2143 342.6412 0001697  51.0008  43.4695 15.08840461  1302,6917.879,95.438,540.918,538.57,0.0
52266.0,STARLINK-3739,PAYLOAD,2022-07-13 22:00:00,15.08826854,0.0001739,53.214,341.1454,43.5937,62.4571,-0.0010630999999999,-0.00017162,0.0,0 STARLINK-3739,1 52266U 22041F   22194.91667824 -.00017162  00000-0 -10631-2 0  9993,2 52266  53.2140 341.1454 0001739  43.5937  62.4571 15.08826854 14086,6917.920999999999,95.438,540.989,538.5830000000002,0.0
52266.0,STARLINK-3739,PAYLOAD,2022-07-14 14:00:01,15.08828884,0.000158,53.2144,338.152,47.8453,81.3334,-0.0013398,-0.00021541,0.0,0 STARLINK-3739,1 52266U 22041F   22195.58334491 -.00021541  00000-0 -13398-2 0  9997,2 52266  53.2144 338.1520 0001580  47.8453  81.3334 15.08828884  1307,6917.9140000000025,95.438,540.872,538.686,0.0
52266.0,STARLINK-3739,PAYLOAD,2022-07-14 22:00:00,15.08818724,0.000167,53.214,336.6562,42.5341,98.22,0.001652,0.00026086,0.0,0 STARLINK-3739,1 52266U 22041F   22195.91667824  .00026086  00000-0  16520-2 0  9990,2 52266  53.2140 336.6562 0001670  42.5341  98.2200 15.08818724 14237,6917.945,95.439,540.966,538.655,0.0
52266.0,STARLINK-3739,PAYLOAD,2022-07-15 14:00:01,15.08855102,0.0001585999999999,53.2141,333.6631,47.6395,116.2854,-0.0010604,-0.00017132,0.0,0 STARLINK-3739,1 52266U 22041F   22196.58334491 -.00017132  00000-0 -10604-2 0  9996,2 52266  53.2141 333.6631 0001586  47.6395 116.2854 15.08855102  1304,6917.834,95.437,540.7959999999998,538.602,0.0
52266.0,STARLINK-3739,PAYLOAD,2022-07-15 22:00:00,15.08866738,0.0001699,53.2136,332.167,44.3664,131.1666,-0.0015712,-0.00025225,0.0,0 STARLINK-3739,1 52266U 22041F   22196.91667824 -.00025225  00000-0 -15712-2 0  9999,2 52266  53.2136 332.1670 0001699  44.3664 131.1666 15.08866738 14389,6917.799,95.436,540.839,538.488,0.0
52266.0,STARLINK-3739,PAYLOAD,2022-07-16 14:00:01,15.08819936,0.0001693,53.217,329.1719,45.5845,153.1506,0.0016815,0.0002656,0.0,0 STARLINK-3739,1 52266U 22041F   22197.58334491  .00026560  00000-0  16815-2 0  9990,2 52266  53.2170 329.1719 0001693  45.5845 153.1506 15.08819936  1308,6917.941999999999,95.439,540.9780000000002,538.636,0.0
52266.0,STARLINK-3739,PAYLOAD,2022-07-16 22:00:00,15.08845437,0.0001693,53.2131,327.6778,43.4581,166.9,-0.00030265,-5.102e-05,0.0,0 STARLINK-3739,1 52266U 22041F   22197.91667824 -.00005102  00000-0 -30265-3 0  9993,2 52266  53.2131 327.6778 0001693  43.4581 166.9000 15.08845437 14532,6917.864000000001,95.437,540.9,538.558,0.0
52266.0,STARLINK-3739,PAYLOAD,2022-07-17 14:00:01,15.08853091,0.0001629999999999,53.213,324.6848,44.0193,189.5367,-0.00264,-0.00042074,0.0,0 STARLINK-3739,1 52266U 22041F   22198.58334491 -.00042074  00000-0 -26400-2 0  9992,2 52266  53.2130 324.6848 0001630  44.0193 189.5367 15.08853091  1306,6917.84,95.437,540.8330000000002,538.578,0.0
52266.0,STARLINK-3739,PAYLOAD,2022-07-17 22:00:00,15.08856061,0.0001737,53.2145,323.188,41.9416,203.2016,-0.0049175,-0.00077741,0.0,0 STARLINK-3739,1 52266U 22041F   22198.91667824 -.00077741  00000-0 -49175-2 0  9991,2 52266  53.2145 323.1880 0001737  41.9416 203.2016 15.08856061  1309,6917.831,95.437,540.898,538.495,0.0
52266.0,STARLINK-3739,PAYLOAD,2022-07-18 06:00:00,15.08793691,0.0001588,53.2128,321.6903,48.8152,207.9074,0.0033121,0.00052752,0.0,0 STARLINK-3739,1 52266U 22041F   22199.25001157  .00052752  00000-0  33121-2 0  9997,2 52266  53.2128 321.6903 0001588  48.8152 207.9074 15.08793691 14731,6918.022,95.44,540.986,538.788,0.0
